SWIATOWID               
1 44426U 98067QL  20177.53153749  .00012654  00000-0  15184-3 0  9994
2 44426  51.6418 291.2088 0002459 350.6314 112.1036 15.61304153 55776
KRAKSAT                 
1 44427U 98067QM  20177.62050435  .00004388  00000-0  68615-4 0  9996
2 44427  51.6440 296.4999 0003163 352.9542  21.4909 15.56058853 55757
VCC A                   
1 44428U 98067QN  20177.59169120  .00006077  00000-0  87985-4 0  9993
2 44428  51.6408 294.8480 0002527  12.8264 347.2791 15.57394204 55779
ENTRYSAT                
1 44429U 98067QP  20177.62017809  .00007579  00000-0  10410-3 0  9990
2 44429  51.6393 293.5104 0002276   1.9064 358.1936 15.58406336 55795
VCC C                   
1 44430U 98067QQ  20177.58698791  .00008500  00000-0  11099-3 0  9991
2 44430  51.6389 292.5482 0002159  16.5908 343.5155 15.59581672 54630
VCC B                   
1 44431U 98067QR  20177.59119076  .00006273  00000-0  90471-4 0  9994
2 44431  51.6398 294.8295 0002645  11.8609 348.2445 15.57435346 55712
ISS DEB                 
1 44788U 98067QT  20177.54569377  .00009866  00000-0  14675-3 0  9999
2 44788  51.6402 301.2518 0004814  26.8970 333.2271 15.55830415 34656
ISS DEB                 
1 44789U 98067QU  20177.58079408  .00009320  00000-0  14056-3 0  9993
2 44789  51.6410 301.5094 0005778  29.3491 330.7824 15.55525478 34649
