<?xml version="1.0" encoding="UTF-8"?>
<ndm xmlns:xsi="https://www.w3.org/2001/XMLSchema-instance" xsi:noNamespaceSchemaLocation="https://sanaregistry.org/r/ndmxml/ndmxml-1.0-master.xsd">
<omm id="CCSDS_OMM_VERS" version="2.0">
<header><CREATION_DATE/><ORIGINATOR/></header><body><segment><metadata><OBJECT_NAME>SWIATOWID</OBJECT_NAME><OBJECT_ID>1998-067QL</OBJECT_ID><CENTER_NAME>EARTH</CENTER_NAME><REF_FRAME>TEME</REF_FRAME><TIME_SYSTEM>UTC</TIME_SYSTEM><MEAN_ELEMENT_THEORY>SGP4</MEAN_ELEMENT_THEORY></metadata><data><meanElements><EPOCH>2020-06-25T12:45:24.839136</EPOCH><MEAN_MOTION>15.61304153</MEAN_MOTION><ECCENTRICITY>.0002459</ECCENTRICITY><INCLINATION>51.6418</INCLINATION><RA_OF_ASC_NODE>291.2088</RA_OF_ASC_NODE><ARG_OF_PERICENTER>350.6314</ARG_OF_PERICENTER><MEAN_ANOMALY>112.1036</MEAN_ANOMALY></meanElements><tleParameters><EPHEMERIS_TYPE>0</EPHEMERIS_TYPE><CLASSIFICATION_TYPE>U</CLASSIFICATION_TYPE><NORAD_CAT_ID>44426</NORAD_CAT_ID><ELEMENT_SET_NO>999</ELEMENT_SET_NO><REV_AT_EPOCH>5577</REV_AT_EPOCH><BSTAR>.15184E-3</BSTAR><MEAN_MOTION_DOT>1.2654E-4</MEAN_MOTION_DOT><MEAN_MOTION_DDOT>0</MEAN_MOTION_DDOT></tleParameters></data></segment></body></omm>
<omm id="CCSDS_OMM_VERS" version="2.0">
<header><CREATION_DATE/><ORIGINATOR/></header><body><segment><metadata><OBJECT_NAME>KRAKSAT</OBJECT_NAME><OBJECT_ID>1998-067QM</OBJECT_ID><CENTER_NAME>EARTH</CENTER_NAME><REF_FRAME>TEME</REF_FRAME><TIME_SYSTEM>UTC</TIME_SYSTEM><MEAN_ELEMENT_THEORY>SGP4</MEAN_ELEMENT_THEORY></metadata><data><meanElements><EPOCH>2020-06-25T14:53:31.575840</EPOCH><MEAN_MOTION>15.56058853</MEAN_MOTION><ECCENTRICITY>.0003163</ECCENTRICITY><INCLINATION>51.6440</INCLINATION><RA_OF_ASC_NODE>296.4999</RA_OF_ASC_NODE><ARG_OF_PERICENTER>352.9542</ARG_OF_PERICENTER><MEAN_ANOMALY>21.4909</MEAN_ANOMALY></meanElements><tleParameters><EPHEMERIS_TYPE>0</EPHEMERIS_TYPE><CLASSIFICATION_TYPE>U</CLASSIFICATION_TYPE><NORAD_CAT_ID>44427</NORAD_CAT_ID><ELEMENT_SET_NO>999</ELEMENT_SET_NO><REV_AT_EPOCH>5575</REV_AT_EPOCH><BSTAR>.68615E-4</BSTAR><MEAN_MOTION_DOT>4.388E-5</MEAN_MOTION_DOT><MEAN_MOTION_DDOT>0</MEAN_MOTION_DDOT></tleParameters></data></segment></body></omm>
<omm id="CCSDS_OMM_VERS" version="2.0">
<header><CREATION_DATE/><ORIGINATOR/></header><body><segment><metadata><OBJECT_NAME>VCC A</OBJECT_NAME><OBJECT_ID>1998-067QN</OBJECT_ID><CENTER_NAME>EARTH</CENTER_NAME><REF_FRAME>TEME</REF_FRAME><TIME_SYSTEM>UTC</TIME_SYSTEM><MEAN_ELEMENT_THEORY>SGP4</MEAN_ELEMENT_THEORY></metadata><data><meanElements><EPOCH>2020-06-25T14:12:02.119680</EPOCH><MEAN_MOTION>15.57394204</MEAN_MOTION><ECCENTRICITY>.0002527</ECCENTRICITY><INCLINATION>51.6408</INCLINATION><RA_OF_ASC_NODE>294.8480</RA_OF_ASC_NODE><ARG_OF_PERICENTER>12.8264</ARG_OF_PERICENTER><MEAN_ANOMALY>347.2791</MEAN_ANOMALY></meanElements><tleParameters><EPHEMERIS_TYPE>0</EPHEMERIS_TYPE><CLASSIFICATION_TYPE>U</CLASSIFICATION_TYPE><NORAD_CAT_ID>44428</NORAD_CAT_ID><ELEMENT_SET_NO>999</ELEMENT_SET_NO><REV_AT_EPOCH>5577</REV_AT_EPOCH><BSTAR>.87985E-4</BSTAR><MEAN_MOTION_DOT>6.077E-5</MEAN_MOTION_DOT><MEAN_MOTION_DDOT>0</MEAN_MOTION_DDOT></tleParameters></data></segment></body></omm>
<omm id="CCSDS_OMM_VERS" version="2.0">
<header><CREATION_DATE/><ORIGINATOR/></header><body><segment><metadata><OBJECT_NAME>ENTRYSAT</OBJECT_NAME><OBJECT_ID>1998-067QP</OBJECT_ID><CENTER_NAME>EARTH</CENTER_NAME><REF_FRAME>TEME</REF_FRAME><TIME_SYSTEM>UTC</TIME_SYSTEM><MEAN_ELEMENT_THEORY>SGP4</MEAN_ELEMENT_THEORY></metadata><data><meanElements><EPOCH>2020-06-25T14:53:03.386976</EPOCH><MEAN_MOTION>15.58406336</MEAN_MOTION><ECCENTRICITY>.0002276</ECCENTRICITY><INCLINATION>51.6393</INCLINATION><RA_OF_ASC_NODE>293.5104</RA_OF_ASC_NODE><ARG_OF_PERICENTER>1.9064</ARG_OF_PERICENTER><MEAN_ANOMALY>358.1936</MEAN_ANOMALY></meanElements><tleParameters><EPHEMERIS_TYPE>0</EPHEMERIS_TYPE><CLASSIFICATION_TYPE>U</CLASSIFICATION_TYPE><NORAD_CAT_ID>44429</NORAD_CAT_ID><ELEMENT_SET_NO>999</ELEMENT_SET_NO><REV_AT_EPOCH>5579</REV_AT_EPOCH><BSTAR>.10410E-3</BSTAR><MEAN_MOTION_DOT>7.579E-5</MEAN_MOTION_DOT><MEAN_MOTION_DDOT>0</MEAN_MOTION_DDOT></tleParameters></data></segment></body></omm>
<omm id="CCSDS_OMM_VERS" version="2.0">
<header><CREATION_DATE/><ORIGINATOR/></header><body><segment><metadata><OBJECT_NAME>VCC C</OBJECT_NAME><OBJECT_ID>1998-067QQ</OBJECT_ID><CENTER_NAME>EARTH</CENTER_NAME><REF_FRAME>TEME</REF_FRAME><TIME_SYSTEM>UTC</TIME_SYSTEM><MEAN_ELEMENT_THEORY>SGP4</MEAN_ELEMENT_THEORY></metadata><data><meanElements><EPOCH>2020-06-25T14:05:15.755424</EPOCH><MEAN_MOTION>15.59581672</MEAN_MOTION><ECCENTRICITY>.0002159</ECCENTRICITY><INCLINATION>51.6389</INCLINATION><RA_OF_ASC_NODE>292.5482</RA_OF_ASC_NODE><ARG_OF_PERICENTER>16.5908</ARG_OF_PERICENTER><MEAN_ANOMALY>343.5155</MEAN_ANOMALY></meanElements><tleParameters><EPHEMERIS_TYPE>0</EPHEMERIS_TYPE><CLASSIFICATION_TYPE>U</CLASSIFICATION_TYPE><NORAD_CAT_ID>44430</NORAD_CAT_ID><ELEMENT_SET_NO>999</ELEMENT_SET_NO><REV_AT_EPOCH>5463</REV_AT_EPOCH><BSTAR>.11099E-3</BSTAR><MEAN_MOTION_DOT>8.5E-5</MEAN_MOTION_DOT><MEAN_MOTION_DDOT>0</MEAN_MOTION_DDOT></tleParameters></data></segment></body></omm>
<omm id="CCSDS_OMM_VERS" version="2.0">
<header><CREATION_DATE/><ORIGINATOR/></header><body><segment><metadata><OBJECT_NAME>VCC B</OBJECT_NAME><OBJECT_ID>1998-067QR</OBJECT_ID><CENTER_NAME>EARTH</CENTER_NAME><REF_FRAME>TEME</REF_FRAME><TIME_SYSTEM>UTC</TIME_SYSTEM><MEAN_ELEMENT_THEORY>SGP4</MEAN_ELEMENT_THEORY></metadata><data><meanElements><EPOCH>2020-06-25T14:11:18.881664</EPOCH><MEAN_MOTION>15.57435346</MEAN_MOTION><ECCENTRICITY>.0002645</ECCENTRICITY><INCLINATION>51.6398</INCLINATION><RA_OF_ASC_NODE>294.8295</RA_OF_ASC_NODE><ARG_OF_PERICENTER>11.8609</ARG_OF_PERICENTER><MEAN_ANOMALY>348.2445</MEAN_ANOMALY></meanElements><tleParameters><EPHEMERIS_TYPE>0</EPHEMERIS_TYPE><CLASSIFICATION_TYPE>U</CLASSIFICATION_TYPE><NORAD_CAT_ID>44431</NORAD_CAT_ID><ELEMENT_SET_NO>999</ELEMENT_SET_NO><REV_AT_EPOCH>5571</REV_AT_EPOCH><BSTAR>.90471E-4</BSTAR><MEAN_MOTION_DOT>6.273E-5</MEAN_MOTION_DOT><MEAN_MOTION_DDOT>0</MEAN_MOTION_DDOT></tleParameters></data></segment></body></omm>
<omm id="CCSDS_OMM_VERS" version="2.0">
<header><CREATION_DATE/><ORIGINATOR/></header><body><segment><metadata><OBJECT_NAME>ISS DEB</OBJECT_NAME><OBJECT_ID>1998-067QT</OBJECT_ID><CENTER_NAME>EARTH</CENTER_NAME><REF_FRAME>TEME</REF_FRAME><TIME_SYSTEM>UTC</TIME_SYSTEM><MEAN_ELEMENT_THEORY>SGP4</MEAN_ELEMENT_THEORY></metadata><data><meanElements><EPOCH>2020-06-25T13:05:47.941728</EPOCH><MEAN_MOTION>15.55830415</MEAN_MOTION><ECCENTRICITY>.0004814</ECCENTRICITY><INCLINATION>51.6402</INCLINATION><RA_OF_ASC_NODE>301.2518</RA_OF_ASC_NODE><ARG_OF_PERICENTER>26.8970</ARG_OF_PERICENTER><MEAN_ANOMALY>333.2271</MEAN_ANOMALY></meanElements><tleParameters><EPHEMERIS_TYPE>0</EPHEMERIS_TYPE><CLASSIFICATION_TYPE>U</CLASSIFICATION_TYPE><NORAD_CAT_ID>44788</NORAD_CAT_ID><ELEMENT_SET_NO>999</ELEMENT_SET_NO><REV_AT_EPOCH>3465</REV_AT_EPOCH><BSTAR>.14675E-3</BSTAR><MEAN_MOTION_DOT>9.866E-5</MEAN_MOTION_DOT><MEAN_MOTION_DDOT>0</MEAN_MOTION_DDOT></tleParameters></data></segment></body></omm>
<omm id="CCSDS_OMM_VERS" version="2.0">
<header><CREATION_DATE/><ORIGINATOR/></header><body><segment><metadata><OBJECT_NAME>ISS DEB</OBJECT_NAME><OBJECT_ID>1998-067QU</OBJECT_ID><CENTER_NAME>EARTH</CENTER_NAME><REF_FRAME>TEME</REF_FRAME><TIME_SYSTEM>UTC</TIME_SYSTEM><MEAN_ELEMENT_THEORY>SGP4</MEAN_ELEMENT_THEORY></metadata><data><meanElements><EPOCH>2020-06-25T13:56:20.608512</EPOCH><MEAN_MOTION>15.55525478</MEAN_MOTION><ECCENTRICITY>.0005778</ECCENTRICITY><INCLINATION>51.6410</INCLINATION><RA_OF_ASC_NODE>301.5094</RA_OF_ASC_NODE><ARG_OF_PERICENTER>29.3491</ARG_OF_PERICENTER><MEAN_ANOMALY>330.7824</MEAN_ANOMALY></meanElements><tleParameters><EPHEMERIS_TYPE>0</EPHEMERIS_TYPE><CLASSIFICATION_TYPE>U</CLASSIFICATION_TYPE><NORAD_CAT_ID>44789</NORAD_CAT_ID><ELEMENT_SET_NO>999</ELEMENT_SET_NO><REV_AT_EPOCH>3464</REV_AT_EPOCH><BSTAR>.14056E-3</BSTAR><MEAN_MOTION_DOT>9.32E-5</MEAN_MOTION_DOT><MEAN_MOTION_DDOT>0</MEAN_MOTION_DDOT></tleParameters></data></segment></body></omm>

</ndm>
